[{"OBJECT_NAME":"HERMES-3","OBJECT_ID":"2025-052BR","EPOCH":"2026-03-09T22:30:01.073952","MEAN_MOTION":15.30039786,"ECCENTRICITY":0.00079928,"INCLINATION":97.3987,"RA_OF_ASC_NODE":324.6131,"ARG_OF_PERICENTER":112.9583,"MEAN_ANOMALY":247.2502,"EPHEMERIS_TYPE":0,"CLASSIFICATION_TYPE":"U","NORAD_CAT_ID":63835,"ELEMENT_SET_NO":999,"REV_AT_EPOCH":5486,"BSTAR":0.0006995793,"MEAN_MOTION_DOT":0.00020316,"MEAN_MOTION_DDOT":0},{"OBJECT_NAME":"STARLINK-34394","OBJECT_ID":"2025-139F","EPOCH":"2026-03-09T13:32:49.606656","MEAN_MOTION":15.30216501,"ECCENTRICITY":8.5e-5,"INCLINATION":53.1579,"RA_OF_ASC_NODE":127.715,"ARG_OF_PERICENTER":89.6476,"MEAN_ANOMALY":270.4622,"EPHEMERIS_TYPE":0,"CLASSIFICATION_TYPE":"U","NORAD_CAT_ID":64669,"ELEMENT_SET_NO":999,"REV_AT_EPOCH":4026,"BSTAR":0.00084321,"MEAN_MOTION_DOT":0.0002471,"MEAN_MOTION_DDOT":0}]
